[{"COMMENT":"GENERATED VIA SPACETRACK.ORG API","ORIGINATOR":"18 SPCS","NORAD_CAT_ID":"43476","OBJECT_NAME":"GRACE-FO 1","OBJECT_TYPE":"PAYLOAD","CLASSIFICATION_TYPE":"U","INTLDES":"18047A","EPOCH":"2023-11-09 12:49:47","EPOCH_MICROSECONDS":"178912","MEAN_MOTION":"15.27293169","ECCENTRICITY":"0.0013025","INCLINATION":"88.9823","RA_OF_ASC_NODE":"329.4088","ARG_OF_PERICENTER":"185.2321","MEAN_ANOMALY":"174.8795","EPHEMERIS_TYPE":"0","ELEMENT_SET_NO":"999","REV_AT_EPOCH":"30417","BSTAR":"0.00017376","MEAN_MOTION_DOT":"0.00004682","MEAN_MOTION_DDOT":"0","FILE":"4080359","TLE_LINE0":"0 GRACE-FO 1","TLE_LINE1":"1 43476U 18047A   23313.53457383  .00004682  00000-0  17376-3 0  9991","TLE_LINE2":"2 43476  88.9823 329.4088 0013025 185.2321 174.8795 15.27293169304172","OBJECT_ID":"2018-047A","OBJECT_NUMBER":"43476","SEMIMAJOR_AXIS":"6862.045","PERIOD":"94.284","APOGEE":"492.848","PERIGEE":"474.972","DECAYED":"0"},{"COMMENT":"GENERATED VIA SPACETRACK.ORG API","ORIGINATOR":"18 SPCS","NORAD_CAT_ID":"43476","OBJECT_NAME":"GRACE-FO 1","OBJECT_TYPE":"PAYLOAD","CLASSIFICATION_TYPE":"U","INTLDES":"18047A","EPOCH":"2023-11-09 15:58:29","EPOCH_MICROSECONDS":"260416","MEAN_MOTION":"15.27294116","ECCENTRICITY":"0.0013041","INCLINATION":"88.9823","RA_OF_ASC_NODE":"329.3909","ARG_OF_PERICENTER":"184.726","MEAN_ANOMALY":"175.3868","EPHEMERIS_TYPE":"0","ELEMENT_SET_NO":"999","REV_AT_EPOCH":"30419","BSTAR":"0.00017037","MEAN_MOTION_DOT":"0.00004591","MEAN_MOTION_DDOT":"0","FILE":"4080174","TLE_LINE0":"0 GRACE-FO 1","TLE_LINE1":"1 43476U 18047A   23313.66561644  .00004591  00000-0  17037-3 0  9994","TLE_LINE2":"2 43476  88.9823 329.3909 0013041 184.7260 175.3868 15.27294116304199","OBJECT_ID":"2018-047A","OBJECT_NUMBER":"43476","SEMIMAJOR_AXIS":"6862.042","PERIOD":"94.284","APOGEE":"492.856","PERIGEE":"474.958","DECAYED":"0"},{"COMMENT":"GENERATED VIA SPACETRACK.ORG API","ORIGINATOR":"18 SPCS","NORAD_CAT_ID":"43476","OBJECT_NAME":"GRACE-FO 1","OBJECT_TYPE":"PAYLOAD","CLASSIFICATION_TYPE":"U","INTLDES":"18047A","EPOCH":"2023-11-09 22:15:53","EPOCH_MICROSECONDS":"396640","MEAN_MOTION":"15.27296275","ECCENTRICITY":"0.0013092","INCLINATION":"88.9822","RA_OF_ASC_NODE":"329.3551","ARG_OF_PERICENTER":"183.7264","MEAN_ANOMALY":"176.389","EPHEMERIS_TYPE":"0","ELEMENT_SET_NO":"999","REV_AT_EPOCH":"30423","BSTAR":"0.00016876","MEAN_MOTION_DOT":"0.00004548","MEAN_MOTION_DDOT":"0","FILE":"4080838","TLE_LINE0":"0 GRACE-FO 1","TLE_LINE1":"1 43476U 18047A   23313.92770135  .00004548  00000-0  16876-3 0  9992","TLE_LINE2":"2 43476  88.9822 329.3551 0013092 183.7264 176.3890 15.27296275304239","OBJECT_ID":"2018-047A","OBJECT_NUMBER":"43476","SEMIMAJOR_AXIS":"6862.036","PERIOD":"94.284","APOGEE":"492.885","PERIGEE":"474.917","DECAYED":"0"},{"COMMENT":"GENERATED VIA SPACETRACK.ORG API","ORIGINATOR":"18 SPCS","NORAD_CAT_ID":"43476","OBJECT_NAME":"GRACE-FO 1","OBJECT_TYPE":"PAYLOAD","CLASSIFICATION_TYPE":"U","INTLDES":"18047A","EPOCH":"2023-11-10 13:59:23","EPOCH_MICROSECONDS":"563104","MEAN_MOTION":"15.27302475","ECCENTRICITY":"0.0013225","INCLINATION":"88.9819","RA_OF_ASC_NODE":"329.2654","ARG_OF_PERICENTER":"181.1917","MEAN_ANOMALY":"178.9303","EPHEMERIS_TYPE":"0","ELEMENT_SET_NO":"999","REV_AT_EPOCH":"30433","BSTAR":"0.00017195","MEAN_MOTION_DOT":"0.00004635","MEAN_MOTION_DDOT":"0","FILE":"4082124","TLE_LINE0":"0 GRACE-FO 1","TLE_LINE1":"1 43476U 18047A   23314.58291161  .00004635  00000-0  17195-3 0  9994","TLE_LINE2":"2 43476  88.9819 329.2654 0013225 181.1917 178.9303 15.27302475304331","OBJECT_ID":"2018-047A","OBJECT_NUMBER":"43476","SEMIMAJOR_AXIS":"6862.017","PERIOD":"94.284","APOGEE":"492.957","PERIGEE":"474.807","DECAYED":"0"},{"COMMENT":"GENERATED VIA SPACETRACK.ORG API","ORIGINATOR":"18 SPCS","NORAD_CAT_ID":"43476","OBJECT_NAME":"GRACE-FO 1","OBJECT_TYPE":"PAYLOAD","CLASSIFICATION_TYPE":"U","INTLDES":"18047A","EPOCH":"2023-11-10 18:42:26","EPOCH_MICROSECONDS":"582112","MEAN_MOTION":"15.27303789","ECCENTRICITY":"0.0013268","INCLINATION":"88.9818","RA_OF_ASC_NODE":"329.2384","ARG_OF_PERICENTER":"180.4244","MEAN_ANOMALY":"179.6997","EPHEMERIS_TYPE":"0","ELEMENT_SET_NO":"999","REV_AT_EPOCH":"30436","BSTAR":"0.00016526","MEAN_MOTION_DOT":"0.00004456","MEAN_MOTION_DDOT":"0","FILE":"4082215","TLE_LINE0":"0 GRACE-FO 1","TLE_LINE1":"1 43476U 18047A   23314.77947433  .00004456  00000-0  16526-3 0  9993","TLE_LINE2":"2 43476  88.9818 329.2384 0013268 180.4244 179.6997 15.27303789304361","OBJECT_ID":"2018-047A","OBJECT_NUMBER":"43476","SEMIMAJOR_AXIS":"6862.013","PERIOD":"94.284","APOGEE":"492.983","PERIGEE":"474.774","DECAYED":"0"},{"COMMENT":"GENERATED VIA SPACETRACK.ORG API","ORIGINATOR":"18 SPCS","NORAD_CAT_ID":"43476","OBJECT_NAME":"GRACE-FO 1","OBJECT_TYPE":"PAYLOAD","CLASSIFICATION_TYPE":"U","INTLDES":"18047A","EPOCH":"2023-11-10 21:51:08","EPOCH_MICROSECONDS":"575488","MEAN_MOTION":"15.27303898","ECCENTRICITY":"0.0013297","INCLINATION":"88.9818","RA_OF_ASC_NODE":"329.2206","ARG_OF_PERICENTER":"179.9415","MEAN_ANOMALY":"180.1838","EPHEMERIS_TYPE":"0","ELEMENT_SET_NO":"999","REV_AT_EPOCH":"30438","BSTAR":"0.00014883","MEAN_MOTION_DOT":"0.00004016","MEAN_MOTION_DDOT":"0","FILE":"4082691","TLE_LINE0":"0 GRACE-FO 1","TLE_LINE1":"1 43476U 18047A   23314.91051592  .00004016  00000-0  14883-3 0  9997","TLE_LINE2":"2 43476  88.9818 329.2206 0013297 179.9415 180.1838 15.27303898304383","OBJECT_ID":"2018-047A","OBJECT_NUMBER":"43476","SEMIMAJOR_AXIS":"6862.013","PERIOD":"94.284","APOGEE":"493.002","PERIGEE":"474.754","DECAYED":"0"},{"COMMENT":"GENERATED VIA SPACETRACK.ORG API","ORIGINATOR":"18 SPCS","NORAD_CAT_ID":"43476","OBJECT_NAME":"GRACE-FO 1","OBJECT_TYPE":"PAYLOAD","CLASSIFICATION_TYPE":"U","INTLDES":"18047A","EPOCH":"2023-11-11 13:34:38","EPOCH_MICROSECONDS":"465472","MEAN_MOTION":"15.27309898","ECCENTRICITY":"0.0013432","INCLINATION":"88.9816","RA_OF_ASC_NODE":"329.1307","ARG_OF_PERICENTER":"177.4252","MEAN_ANOMALY":"182.7069","EPHEMERIS_TYPE":"0","ELEMENT_SET_NO":"999","REV_AT_EPOCH":"30448","BSTAR":"0.00015534","MEAN_MOTION_DOT":"0.00004191","MEAN_MOTION_DDOT":"0","FILE":"4083845","TLE_LINE0":"0 GRACE-FO 1","TLE_LINE1":"1 43476U 18047A   23315.56572298  .00004191  00000-0  15534-3 0  9998","TLE_LINE2":"2 43476  88.9816 329.1307 0013432 177.4252 182.7069 15.27309898304486","OBJECT_ID":"2018-047A","OBJECT_NUMBER":"43476","SEMIMAJOR_AXIS":"6861.995","PERIOD":"94.283","APOGEE":"493.077","PERIGEE":"474.643","DECAYED":"0"},{"COMMENT":"GENERATED VIA SPACETRACK.ORG API","ORIGINATOR":"18 SPCS","NORAD_CAT_ID":"43476","OBJECT_NAME":"GRACE-FO 1","OBJECT_TYPE":"PAYLOAD","CLASSIFICATION_TYPE":"U","INTLDES":"18047A","EPOCH":"2023-11-11 19:52:02","EPOCH_MICROSECONDS":"376192","MEAN_MOTION":"15.27311645","ECCENTRICITY":"0.0013492","INCLINATION":"88.9815","RA_OF_ASC_NODE":"329.0948","ARG_OF_PERICENTER":"176.4162","MEAN_ANOMALY":"183.7187","EPHEMERIS_TYPE":"0","ELEMENT_SET_NO":"999","REV_AT_EPOCH":"30452","BSTAR":"0.00014914","MEAN_MOTION_DOT":"0.00004026","MEAN_MOTION_DDOT":"0","FILE":"4083915","TLE_LINE0":"0 GRACE-FO 1","TLE_LINE1":"1 43476U 18047A   23315.82780528  .00004026  00000-0  14914-3 0  9992","TLE_LINE2":"2 43476  88.9815 329.0948 0013492 176.4162 183.7187 15.27311645304520","OBJECT_ID":"2018-047A","OBJECT_NUMBER":"43476","SEMIMAJOR_AXIS":"6861.990","PERIOD":"94.283","APOGEE":"493.113","PERIGEE":"474.597","DECAYED":"0"},{"COMMENT":"GENERATED VIA SPACETRACK.ORG API","ORIGINATOR":"18 SPCS","NORAD_CAT_ID":"43476","OBJECT_NAME":"GRACE-FO 1","OBJECT_TYPE":"PAYLOAD","CLASSIFICATION_TYPE":"U","INTLDES":"18047A","EPOCH":"2023-11-11 21:26:23","EPOCH_MICROSECONDS":"336160","MEAN_MOTION":"15.27310909","ECCENTRICITY":"0.0013507","INCLINATION":"88.9815","RA_OF_ASC_NODE":"329.0858","ARG_OF_PERICENTER":"176.1606","MEAN_ANOMALY":"183.9749","EPHEMERIS_TYPE":"0","ELEMENT_SET_NO":"999","REV_AT_EPOCH":"30453","BSTAR":"0.00012668","MEAN_MOTION_DOT":"0.00003424","MEAN_MOTION_DDOT":"0","FILE":"4084458","TLE_LINE0":"0 GRACE-FO 1","TLE_LINE1":"1 43476U 18047A   23315.89332565  .00003424  00000-0  12668-3 0  9998","TLE_LINE2":"2 43476  88.9815 329.0858 0013507 176.1606 183.9749 15.27310909304536","OBJECT_ID":"2018-047A","OBJECT_NUMBER":"43476","SEMIMAJOR_AXIS":"6861.992","PERIOD":"94.283","APOGEE":"493.125","PERIGEE":"474.588","DECAYED":"0"},{"COMMENT":"GENERATED VIA SPACETRACK.ORG API","ORIGINATOR":"18 SPCS","NORAD_CAT_ID":"43476","OBJECT_NAME":"GRACE-FO 1","OBJECT_TYPE":"PAYLOAD","CLASSIFICATION_TYPE":"U","INTLDES":"18047A","EPOCH":"2023-11-12 13:09:52","EPOCH_MICROSECONDS":"999776","MEAN_MOTION":"15.27316871","ECCENTRICITY":"0.0013626","INCLINATION":"88.9814","RA_OF_ASC_NODE":"328.9959","ARG_OF_PERICENTER":"173.7313","MEAN_ANOMALY":"186.4109","EPHEMERIS_TYPE":"0","ELEMENT_SET_NO":"999","REV_AT_EPOCH":"30463","BSTAR":"0.00014705","MEAN_MOTION_DOT":"0.00003971","MEAN_MOTION_DDOT":"0","FILE":"4085556","TLE_LINE0":"0 GRACE-FO 1","TLE_LINE1":"1 43476U 18047A   23316.54853009  .00003971  00000-0  14705-3 0  9993","TLE_LINE2":"2 43476  88.9814 328.9959 0013626 173.7313 186.4109 15.27316871304638","OBJECT_ID":"2018-047A","OBJECT_NUMBER":"43476","SEMIMAJOR_AXIS":"6861.974","PERIOD":"94.283","APOGEE":"493.189","PERIGEE":"474.489","DECAYED":"0"}]